YAOGAN-43 02E           
1 60949U 24156E   26153.50468267  .00014008  00000+0  57663-3 0  9993
2 60949  34.9977 290.5076 0001677 257.9873 102.0653 15.23307844 97202
YAOGAN-43 02F           
1 60950U 24156F   26157.62548748  .00010424  00000+0  43381-3 0  9995
2 60950  34.9931 264.3064 0001385 260.0432 100.0126 15.22987468 97839
SENTINEL-2C             
1 60989U 24157A   26157.47323528  .00000125  00000+0  64312-4 0  9993
2 60989  98.5692 232.4064 0001206  78.6947 281.4372 14.30814937 91450
STARLINK-11289 [DTC]    
1 60991U 24158B   26157.42013537  .00006517  00000+0  58488-4 0  9996
2 60991  53.1577 203.6414 0000703  65.6330 294.4762 15.69757273101534
STARLINK-11282 [DTC]    
1 60992U 24158C   26156.41617472 -.00000130  00000+0  37891-5 0  9995
2 60992  53.1589 208.7624 0001068 113.3542 246.7588 15.69708552101372
STARLINK-11283 [DTC]    
1 60993U 24158D   26157.40554559  .00000879  00000+0  12108-4 0  9994
2 60993  53.1576 204.2889 0001188  60.6997 299.4139 15.69717062101524
STARLINK-11267 [DTC]    
1 60994U 24158E   26157.40064057  .00000555  00000+0  94345-5 0  9999
2 60994  53.1591 204.2517 0000689  91.2418 268.8679 15.69715467101529
STARLINK-11269 [DTC]    
1 60995U 24158F   26157.39577015 -.00018163  00000+0 -14463-3 0  9998
2 60995  53.1591 204.2138 0001081  17.8816 342.2240 15.69834513101516
STARLINK-11281 [DTC]    
1 60996U 24158G   26157.39082098  .00004453  00000+0  41605-4 0  9995
2 60996  53.1601 204.1851 0001277  85.1220 274.9944 15.69702166101514
STARLINK-11260 [DTC]    
1 60997U 24158H   26156.36908876 -.00000631  00000+0 -34641-6 0  9993
2 60997  53.1585 186.8714 0001372  82.0012 278.1162 15.69705282101724
STARLINK-11287 [DTC]    
1 60998U 24158J   26156.43089253 -.00000282  00000+0  25246-5 0  9992
2 60998  53.1575 208.8562 0000944  64.5699 295.5416 15.69706956101364
STARLINK-11270 [DTC]    
1 60999U 24158K   26157.57202264  .00173682  00000+0  14051-2 0  9991
2 60999  53.1561 203.1781 0001263  69.8754 290.2400 15.69770957101543
STARLINK-11290 [DTC]    
1 61000U 24158L   26157.43977877  .00000659  00000+0  10298-4 0  9993
2 61000  53.1593 203.7648 0001146  95.8336 264.2813 15.69715504101596
STARLINK-11274 [DTC]    
1 61001U 24158M   26157.42996365  .00001602  00000+0  18073-4 0  9994
2 61001  53.1580 203.7062 0001146  68.8526 291.2615 15.69724228101520
STARLINK-11288 [DTC]    
1 61002U 24158N   26157.42505639  .00001122  00000+0  14111-4 0  9991
2 61002  53.1584 203.6703 0001278  72.8827 287.2331 15.69719732101525
STARLINK-32279          
1 61003U 24158P   26157.58337963  .00060325  00000+0  17825-2 0  9995
2 61003  53.1608  12.5198 0000901  88.1523 241.8811 15.34395755  5869
STARLINK-32336          
1 61004U 24158Q   26157.58337963  .00066029  00000+0  20015-2 0  9998
2 61004  53.1611  12.5800 0001442  88.1216 212.1368 15.33546424  5918
STARLINK-32284          
1 61005U 24158R   26154.00002315  .00683922  00000+0  19194-1 0  9995
2 61005  53.1592  29.2517 0002544 102.9818 234.9248 15.33632724  5877
STARLINK-32282          
1 61006U 24158S   26157.32817491 -.00001152  00000+0 -26788-4 0  9994
2 61006  53.1624  13.7084 0001779 114.8684 245.2502 15.30186839 99221
STARLINK-32360          
1 61007U 24158T   26157.27667777  .00000235  00000+0  18085-4 0  9999
2 61007  53.1615 358.0999 0001265 100.9707 259.1438 15.34391369 99361
STARLINK-32340          
1 61008U 24158U   26157.33245212  .00001555  00000+0  57171-4 0  9998
2 61008  53.1617  13.6670 0001291  87.9193 272.1958 15.34388093 99155
STARLINK-32347          
1 61010U 24158W   26157.33134435  .00001179  00000+0  51939-4 0  9993
2 61010  53.1621  13.7263 0001394 108.6086 251.5067 15.30196202 99155
GEESAT-3 01             
1 61011U 24159A   26157.50267028  .00002936  00000+0  37425-3 0  9994
2 61011  49.9982 132.6424 0002449 212.1626 147.9163 14.84175878 95090
GEESAT-3 02             
1 61012U 24159B   26157.62967518  .00002719  00000+0  34817-3 0  9990
2 61012  49.9922 132.2927 0019028  14.3256 345.8219 14.84158255 95227
GEESAT-3 03             
1 61013U 24159C   26157.45005645  .00002844  00000+0  36342-3 0  9990
2 61013  49.9913 131.8648 0005141  81.3930 278.7591 14.84165685 95241
GEESAT-3 04             
1 61014U 24159D   26157.60234003  .00002721  00000+0  35662-3 0  9998
2 61014  49.9985  43.1212 0002846  35.7535 324.3593 14.83230979 96436
GEESAT-3 05             
1 61015U 24159E   26157.44245636  .00003706  00000+0  46470-3 0  9998
2 61015  50.0006 133.1554 0013663  12.9593 347.1694 14.84198923 95182
GEESAT-3 06             
1 61016U 24159F   26157.53961806  .00002737  00000+0  35051-3 0  9999
2 61016  49.9958 132.7368 0016474  35.2142 324.9882 14.84158171 95188
GEESAT-3 07             
1 61017U 24159G   26157.53193072  .00002648  00000+0  34030-3 0  9999
2 61017  49.9916 132.3808 0011503 349.8681  10.2024 14.84156435 94563
GEESAT-3 08             
1 61018U 24159H   26157.61452353  .00002824  00000+0  35958-3 0  9995
2 61018  50.0031 132.1220 0027580  51.8553 308.4865 14.84165747 95204
