OBJECT_NAME,OBJECT_ID,EPOCH,MEAN_MOTION,ECCENTRICITY,INCLINATION,RA_OF_ASC_NODE,ARG_OF_PERICENTER,MEAN_ANOMALY,EPHEMERIS_TYPE,CLASSIFICATION_TYPE,NORAD_CAT_ID,ELEMENT_SET_NO,REV_AT_EPOCH,BSTAR,MEAN_MOTION_DOT,MEAN_MOTION_DDOT
YAOGAN-43 02E,2024-156E,2026-06-02T12:06:44.582688,15.23307844,.00016778,34.9977,290.5076,257.9873,102.0653,0,U,60949,999,9720,.57662914E-3,.14008E-3,0
YAOGAN-43 02F,2024-156F,2026-06-06T15:00:42.118272,15.22987468,.00013856,34.9931,264.3064,260.0432,100.0126,0,U,60950,999,9783,.43381457E-3,.10424E-3,0
SENTINEL-2C,2024-157A,2026-06-06T11:21:27.528192,14.30814937,.00012065,98.5692,232.4064,78.6947,281.4372,0,U,60989,999,9145,.64311706E-4,.125E-5,0
STARLINK-11289 [DTC],2024-158B,2026-06-06T10:04:59.695968,15.69757273,.0000703,53.1577,203.6414,65.6330,294.4762,0,U,60991,999,10153,.5848849E-4,.6517E-4,0
STARLINK-11282 [DTC],2024-158C,2026-06-05T09:59:17.495808,15.69708552,.0001068,53.1589,208.7624,113.3542,246.7588,0,U,60992,999,10137,.3789093E-5,-.13E-5,0
STARLINK-11283 [DTC],2024-158D,2026-06-06T09:43:59.138976,15.69717062,.00011888,53.1576,204.2889,60.6997,299.4139,0,U,60993,999,10152,.12108079E-4,.879E-5,0
STARLINK-11267 [DTC],2024-158E,2026-06-06T09:36:55.345248,15.69715467,.00006895,53.1591,204.2517,91.2418,268.8679,0,U,60994,999,10152,.9434471E-5,.555E-5,0
STARLINK-11269 [DTC],2024-158F,2026-06-06T09:29:54.540960,15.69834513,.00010814,53.1591,204.2138,17.8816,342.2240,0,U,60995,999,10151,-.14462628E-3,-.18163E-3,0
STARLINK-11281 [DTC],2024-158G,2026-06-06T09:22:46.932672,15.69702166,.00012775,53.1601,204.1851,85.1220,274.9944,0,U,60996,999,10151,.41604782E-4,.4453E-4,0
STARLINK-11260 [DTC],2024-158H,2026-06-05T08:51:29.268864,15.69705282,.00013723,53.1585,186.8714,82.0012,278.1162,0,U,60997,999,10172,-.346406E-6,-.631E-5,0
STARLINK-11287 [DTC],2024-158J,2026-06-05T10:20:29.114592,15.69706956,.00009448,53.1575,208.8562,64.5699,295.5416,0,U,60998,999,10136,.2524629E-5,-.282E-5,0
STARLINK-11270 [DTC],2024-158K,2026-06-06T13:43:42.756096,15.69770957,.00012637,53.1561,203.1781,69.8754,290.2400,0,U,60999,999,10154,.14050745E-2,.173682E-2,0
STARLINK-11290 [DTC],2024-158L,2026-06-06T10:33:16.885728,15.69715504,.00011461,53.1593,203.7648,95.8336,264.2813,0,U,61000,999,10159,.10298334E-4,.659E-5,0
STARLINK-11274 [DTC],2024-158M,2026-06-06T10:19:08.859360,15.69724228,.00011465,53.1580,203.7062,68.8526,291.2615,0,U,61001,999,10152,.18073449E-4,.1602E-4,0
STARLINK-11288 [DTC],2024-158N,2026-06-06T10:12:04.872096,15.69719732,.00012783,53.1584,203.6703,72.8827,287.2331,0,U,61002,999,10152,.14111195E-4,.1122E-4,0
STARLINK-32279,2024-158P,2026-06-06T14:00:04.000032,15.34395755,.00009015,53.1608,12.5198,88.1523,241.8811,0,U,61003,999,586,.17824744E-2,.60325E-3,0
STARLINK-32336,2024-158Q,2026-06-06T14:00:04.000032,15.33546424,.00014427,53.1611,12.5800,88.1216,212.1368,0,U,61004,999,591,.20015026E-2,.66029E-3,0
STARLINK-32284,2024-158R,2026-06-03T00:00:02.000160,15.33632724,.00025443,53.1592,29.2517,102.9818,234.9248,0,U,61005,999,587,.19193919E-1,.683922E-2,0
STARLINK-32282,2024-158S,2026-06-06T07:52:34.312224,15.30186839,.00017796,53.1624,13.7084,114.8684,245.2502,0,U,61006,999,9922,-.26787713E-4,-.1152E-4,0
STARLINK-32360,2024-158T,2026-06-06T06:38:24.959328,15.34391369,.0001265,53.1615,358.0999,100.9707,259.1438,0,U,61007,999,9936,.18084777E-4,.235E-5,0
STARLINK-32340,2024-158U,2026-06-06T07:58:43.863168,15.34388093,.00012917,53.1617,13.6670,87.9193,272.1958,0,U,61008,999,9915,.57171494E-4,.1555E-4,0
STARLINK-32347,2024-158W,2026-06-06T07:57:08.151840,15.30196202,.00013949,53.1621,13.7263,108.6086,251.5067,0,U,61010,999,9915,.5193879E-4,.1179E-4,0
GEESAT-3 01,2024-159A,2026-06-06T12:03:50.712192,14.84175878,.00024497,49.9982,132.6424,212.1626,147.9163,0,U,61011,999,9509,.37425345E-3,.2936E-4,0
GEESAT-3 02,2024-159B,2026-06-06T15:06:43.935552,14.84158255,.00190284,49.9922,132.2927,14.3256,345.8219,0,U,61012,999,9522,.34817073E-3,.2719E-4,0
GEESAT-3 03,2024-159C,2026-06-06T10:48:04.877280,14.84165685,.00051417,49.9913,131.8648,81.3930,278.7591,0,U,61013,999,9524,.36341572E-3,.2844E-4,0
GEESAT-3 04,2024-159D,2026-06-06T14:27:22.178592,14.83230979,.00028469,49.9985,43.1212,35.7535,324.3593,0,U,61014,999,9643,.35662464E-3,.2721E-4,0
GEESAT-3 05,2024-159E,2026-06-06T10:37:08.229504,14.84198923,.00136632,50.0006,133.1554,12.9593,347.1694,0,U,61015,999,9518,.46470441E-3,.3706E-4,0
GEESAT-3 06,2024-159F,2026-06-06T12:57:03.000384,14.84158171,.00164744,49.9958,132.7368,35.2142,324.9882,0,U,61016,999,9518,.35051351E-3,.2737E-4,0
GEESAT-3 07,2024-159G,2026-06-06T12:45:58.814208,14.84156435,.00115035,49.9916,132.3808,349.8681,10.2024,0,U,61017,999,9456,.34029879E-3,.2648E-4,0
GEESAT-3 08,2024-159H,2026-06-06T14:44:54.832992,14.84165747,.00275802,50.0031,132.1220,51.8553,308.4865,0,U,61018,999,9520,.35958061E-3,.2824E-4,0
